OBJECT_NAME,OBJECT_ID,EPOCH,MEAN_MOTION,ECCENTRICITY,INCLINATION,RA_OF_ASC_NODE,ARG_OF_PERICENTER,MEAN_ANOMALY,EPHEMERIS_TYPE,CLASSIFICATION_TYPE,NORAD_CAT_ID,ELEMENT_SET_NO,REV_AT_EPOCH,BSTAR,MEAN_MOTION_DOT,MEAN_MOTION_DDOT
IRIDIUM 138,2017-083B,2026-07-01T03:08:07.209600,14.34217386,.0002058,86.3986,315.8836,87.5640,272.5791,0,U,43071,999,44613,-.80851E-5,-.3E-7,0
IRIDIUM 116,2017-083C,2026-06-30T19:40:35.207616,14.34217427,.0002133,86.3972,316.3016,101.7327,258.4109,0,U,43072,999,44612,-.6689777E-5,.1E-7,0
IRIDIUM 130,2017-083D,2026-07-01T03:17:15.090144,14.34217688,.000205,86.3985,316.4455,98.0449,262.0980,0,U,43073,999,44611,.21948E-4,.81E-6,0
IRIDIUM 151,2017-083E,2026-07-01T02:40:43.199904,14.34217524,.0002111,86.3974,316.2377,94.2045,265.9392,0,U,43074,999,44613,-.31164E-5,.11E-6,0
IRIDIUM 134,2017-083F,2026-07-01T01:55:03.099072,14.34217379,.0002173,86.3981,316.2588,95.0389,265.1055,0,U,43075,999,44609,.35153E-4,.118E-5,0
IRIDIUM 137,2017-083G,2026-07-01T02:13:19.248096,14.34217680,.000257,86.3982,316.3467,99.8659,260.2827,0,U,43076,999,44616,.16478E-5,.24E-6,0
IRIDIUM 141,2017-083H,2026-07-01T02:04:11.180928,14.34217545,.0002074,86.3973,316.1795,91.7927,268.3506,0,U,43077,999,44616,-.24783E-5,.13E-6,0
IRIDIUM 153,2017-083J,2026-06-30T18:13:27.430464,14.34217703,.00021699,86.3968,284.7966,91.5380,268.6064,0,U,43078,999,44722,.6235571E-5,.37E-6,0
IRIDIUM 131,2017-083K,2026-07-01T01:45:55.191744,14.34218348,.0002234,86.3982,316.3712,92.9983,267.1468,0,U,43079,999,44609,.94261E-4,.284E-5,0
IRIDIUM 144,2018-030A,2026-06-30T08:19:47.347392,14.34216975,.00022273,86.3965,284.8977,98.1908,261.9541,0,U,43249,999,43202,.22749425E-4,.83E-6,0
IRIDIUM 149,2018-030B,2026-06-30T23:33:07.481376,14.34217202,.0002185,86.3960,284.5994,93.4885,266.6560,0,U,43250,999,43213,-.17268E-4,-.29E-6,0
IRIDIUM 157,2018-030C,2026-07-01T00:00:31.449600,14.34217737,.0002232,86.3964,284.6446,94.7150,265.4301,0,U,43251,999,43211,.45567E-4,.147E-5,0
IRIDIUM 140,2018-030D,2026-06-30T19:26:31.439040,14.34217486,.0002188,86.3965,284.7369,95.5526,264.5919,0,U,43252,999,43214,.16881E-4,.67E-6,0
IRIDIUM 145,2018-030E,2026-07-01T00:09:38.346048,14.34222340,.000226,86.3964,284.6269,102.9996,257.1453,0,U,43253,999,43210,.63153E-4,.197E-5,0
IRIDIUM 146,2018-030F,2026-06-30T17:00:23.469408,14.34217385,.00021487,86.3962,284.7640,98.1242,262.0198,0,U,43254,999,43207,-.7303682E-5,-.1E-7,0
IRIDIUM 148,2018-030G,2026-07-01T00:37:03.465120,14.34217461,.0002232,86.3963,284.6747,95.5758,264.5692,0,U,43255,999,43215,-.70871E-5,0,0
IRIDIUM 142,2018-030H,2026-06-30T20:30:27.455616,14.34217412,.0002166,86.3959,284.6346,99.6242,260.5198,0,U,43256,999,43209,-.96704E-5,-.7E-7,0
IRIDIUM 150,2018-030J,2026-07-01T00:46:11.449344,14.34217529,.0002176,86.3966,284.6771,96.4053,263.7391,0,U,43257,999,43214,.40088E-4,.132E-5,0
IRIDIUM 143,2018-030K,2026-07-01T00:18:47.000736,14.34220256,.0002242,86.3969,284.7781,98.1593,261.9857,0,U,43258,999,43207,.84025E-4,.255E-5,0
IRIDIUM 161,2018-047C,2026-07-01T02:30:28.240128,14.43280148,.0002463,86.4477,82.6523,80.4128,279.7351,0,U,43478,999,42714,.10594E-3,.377E-5,0
IRIDIUM 152,2018-047D,2026-07-01T03:00:26.751168,14.34213261,.0002177,86.3951,82.5045,80.4770,279.6672,0,U,43479,999,42448,-.17966E-3,-.483E-5,0
IRIDIUM 147,2018-047E,2026-07-01T03:09:33.994080,14.34219396,.000222,86.3953,82.5074,87.2429,272.9020,0,U,43480,999,42448,.57366E-4,.18E-5,0
IRIDIUM 110,2018-047F,2026-07-01T03:18:42.290208,14.34217867,.0002401,86.3956,82.5971,77.0718,283.0746,0,U,43481,999,42447,.15767E-4,.64E-6,0
IRIDIUM 162,2018-047G,2026-07-01T02:21:23.679072,14.43281795,.0002237,86.4476,82.5457,83.1498,276.9957,0,U,43482,999,42713,.10034E-3,.358E-5,0
IRIDIUM 160,2018-061A,2026-07-01T02:00:42.477408,14.34217543,.000215,86.3948,50.9856,85.8256,274.3186,0,U,43569,999,41536,-.5291E-5,.5E-7,0
IRIDIUM 166,2018-061B,2026-06-30T14:53:58.437600,14.34217541,.00020507,86.3946,51.1297,88.8894,271.2537,0,U,43570,999,41532,-.3616321E-5,.1E-6,0
IRIDIUM 158,2018-061C,2026-07-01T01:51:34.473312,14.34217687,.0002108,86.3945,50.9487,84.1673,275.9763,0,U,43571,999,41535,.12712E-4,.55E-6,0
IRIDIUM 165,2018-061D,2026-07-01T02:28:06.480192,14.34217701,.0002153,86.3949,50.9848,89.7994,270.3449,0,U,43572,999,41538,.14923E-4,.62E-6,0
IRIDIUM 155,2018-061E,2026-07-01T03:13:46.474752,14.34217238,.0001946,86.3945,50.8396,85.2784,274.8634,0,U,43573,999,41535,-.17607E-4,-.3E-6,0
IRIDIUM 154,2018-061F,2026-07-01T02:46:22.408032,14.34218282,.0002245,86.3950,50.9822,89.3671,270.7782,0,U,43574,999,41540,.26154E-4,.93E-6,0
IRIDIUM 163,2018-061G,2026-07-01T02:18:58.474368,14.34217879,.0002182,86.3947,50.9050,84.2011,275.9434,0,U,43575,999,41537,.12802E-4,.56E-6,0
