IRIDIUM 138             
1 43071U 17083B   26182.13063900 -.00000003  00000+0 -80851-5 0  9996
2 43071  86.3986 315.8836 0002058  87.5640 272.5791 14.34217386446136
IRIDIUM 116             
1 43072U 17083C   26181.81985194  .00000001  00000+0 -66898-5 0  9991
2 43072  86.3972 316.3016 0002133 101.7327 258.4109 14.34217427446124
IRIDIUM 130             
1 43073U 17083D   26182.13698021  .00000081  00000+0  21948-4 0  9991
2 43073  86.3985 316.4455 0002050  98.0449 262.0980 14.34217688446114
IRIDIUM 151             
1 43074U 17083E   26182.11161111  .00000011  00000+0 -31164-5 0  9991
2 43074  86.3974 316.2377 0002111  94.2045 265.9392 14.34217524446132
IRIDIUM 134             
1 43075U 17083F   26182.07989698  .00000118  00000+0  35153-4 0  9993
2 43075  86.3981 316.2588 0002173  95.0389 265.1055 14.34217379446094
IRIDIUM 137             
1 43076U 17083G   26182.09258389  .00000024  00000+0  16478-5 0  9998
2 43076  86.3982 316.3467 0002570  99.8659 260.2827 14.34217680446162
IRIDIUM 141             
1 43077U 17083H   26182.08624052  .00000013  00000+0 -24783-5 0  9999
2 43077  86.3973 316.1795 0002074  91.7927 268.3506 14.34217545446166
IRIDIUM 153             
1 43078U 17083J   26181.75934526  .00000037  00000+0  62356-5 0  9996
2 43078  86.3968 284.7966 0002169  91.5380 268.6064 14.34217703447223
IRIDIUM 131             
1 43079U 17083K   26182.07355546  .00000284  00000+0  94261-4 0  9995
2 43079  86.3982 316.3712 0002234  92.9983 267.1468 14.34218348446090
IRIDIUM 144             
1 43249U 18030A   26181.34707578  .00000083  00000+0  22749-4 0  9991
2 43249  86.3965 284.8977 0002227  98.1908 261.9541 14.34216975432025
IRIDIUM 149             
1 43250U 18030B   26181.98133659 -.00000029  00000+0 -17268-4 0  9998
2 43250  86.3960 284.5994 0002185  93.4885 266.6560 14.34217202432132
IRIDIUM 157             
1 43251U 18030C   26182.00036400  .00000147  00000+0  45567-4 0  9991
2 43251  86.3964 284.6446 0002232  94.7150 265.4301 14.34217737432113
IRIDIUM 140             
1 43252U 18030D   26181.81008610  .00000067  00000+0  16881-4 0  9990
2 43252  86.3965 284.7369 0002188  95.5526 264.5919 14.34217486432145
IRIDIUM 145             
1 43253U 18030E   26182.00669382  .00000197  00000+0  63153-4 0  9990
2 43253  86.3964 284.6269 0002260 102.9996 257.1453 14.34222340432100
IRIDIUM 146             
1 43254U 18030F   26181.70860497 -.00000001  00000+0 -73037-5 0  9996
2 43254  86.3962 284.7640 0002148  98.1242 262.0198 14.34217385432078
IRIDIUM 148             
1 43255U 18030G   26182.02573455  .00000000  00000+0 -70871-5 0  9999
2 43255  86.3963 284.6747 0002232  95.5758 264.5692 14.34217461432154
IRIDIUM 142             
1 43256U 18030H   26181.85448444 -.00000007  00000+0 -96704-5 0  9990
2 43256  86.3959 284.6346 0002166  99.6242 260.5198 14.34217412432090
IRIDIUM 150             
1 43257U 18030J   26182.03207696  .00000132  00000+0  40088-4 0  9994
2 43257  86.3966 284.6771 0002176  96.4053 263.7391 14.34217529432142
IRIDIUM 143             
1 43258U 18030K   26182.01304399  .00000255  00000+0  84025-4 0  9996
2 43258  86.3969 284.7781 0002242  98.1593 261.9857 14.34220256432070
IRIDIUM 161             
1 43478U 18047C   26182.10449352  .00000377  00000+0  10594-3 0  9991
2 43478  86.4477  82.6523 0002463  80.4128 279.7351 14.43280148427145
IRIDIUM 152             
1 43479U 18047D   26182.12530962 -.00000483  00000+0 -17966-3 0  9992
2 43479  86.3951  82.5045 0002177  80.4770 279.6672 14.34213261424486
IRIDIUM 147             
1 43480U 18047E   26182.13164345  .00000180  00000+0  57366-4 0  9994
2 43480  86.3953  82.5074 0002220  87.2429 272.9020 14.34219396424485
IRIDIUM 110             
1 43481U 18047F   26182.13798947  .00000064  00000+0  15767-4 0  9996
2 43481  86.3956  82.5971 0002401  77.0718 283.0746 14.34217867424472
IRIDIUM 162             
1 43482U 18047G   26182.09819073  .00000358  00000+0  10034-3 0  9993
2 43482  86.4476  82.5457 0002237  83.1498 276.9957 14.43281795427132
IRIDIUM 160             
1 43569U 18061A   26182.08382497  .00000005  00000+0 -52910-5 0  9990
2 43569  86.3948  50.9856 0002150  85.8256 274.3186 14.34217543415366
IRIDIUM 166             
1 43570U 18061B   26181.62081525  .00000010  00000+0 -36163-5 0  9997
2 43570  86.3946  51.1297 0002050  88.8894 271.2537 14.34217541415328
IRIDIUM 158             
1 43571U 18061C   26182.07748233  .00000055  00000+0  12712-4 0  9995
2 43571  86.3945  50.9487 0002108  84.1673 275.9763 14.34217687415350
IRIDIUM 165             
1 43572U 18061D   26182.10285278  .00000062  00000+0  14923-4 0  9999
2 43572  86.3949  50.9848 0002153  89.7994 270.3449 14.34217701415383
IRIDIUM 155             
1 43573U 18061E   26182.13456568 -.00000030  00000+0 -17607-4 0  9994
2 43573  86.3945  50.8396 0001946  85.2784 274.8634 14.34217238415351
IRIDIUM 154             
1 43574U 18061F   26182.11553713  .00000093  00000+0  26154-4 0  9997
2 43574  86.3950  50.9822 0002245  89.3671 270.7782 14.34218282415401
IRIDIUM 163             
1 43575U 18061G   26182.09651012  .00000056  00000+0  12802-4 0  9990
2 43575  86.3947  50.9050 0002182  84.2011 275.9434 14.34217879415371
